[{"OBJECT_NAME":"STARLINK-1454","OBJECT_ID":"2020-035Q","EPOCH":"2026-03-10T00:00:02.999808","MEAN_MOTION":15.51126442,"ECCENTRICITY":0.00086064,"INCLINATION":53.0515,"RA_OF_ASC_NODE":51.3708,"ARG_OF_PERICENTER":61.5292,"MEAN_ANOMALY":248.5071,"EPHEMERIS_TYPE":0,"CLASSIFICATION_TYPE":"U","NORAD_CAT_ID":45671,"ELEMENT_SET_NO":999,"REV_AT_EPOCH":591,"BSTAR":0.001841095,"MEAN_MOTION_DOT":0.00110444,"MEAN_MOTION_DDOT":0},{"OBJECT_NAME":"ICEYE-X25","OBJECT_ID":"2023-084AH","EPOCH":"2026-03-09T21:45:30.911328","MEAN_MOTION":15.51745691,"ECCENTRICITY":0.00040532,"INCLINATION":97.576,"RA_OF_ASC_NODE":209.03,"ARG_OF_PERICENTER":281.7425,"MEAN_ANOMALY":78.3371,"EPHEMERIS_TYPE":0,"CLASSIFICATION_TYPE":"U","NORAD_CAT_ID":56963,"ELEMENT_SET_NO":999,"REV_AT_EPOCH":15253,"BSTAR":0.0009263887,"MEAN_MOTION_DOT":0.00055448,"MEAN_MOTION_DDOT":0}]
